[{"OBJECT_NAME":"BB3","OBJECT_ID":"2023-133D","EPOCH":"2026-03-09T13:04:02.862912","MEAN_MOTION":14.27357433,"ECCENTRICITY":0.0139598,"INCLINATION":81.0042,"RA_OF_ASC_NODE":95.4105,"ARG_OF_PERICENTER":242.6727,"MEAN_ANOMALY":116.0185,"EPHEMERIS_TYPE":0,"CLASSIFICATION_TYPE":"U","NORAD_CAT_ID":57760,"ELEMENT_SET_NO":999,"REV_AT_EPOCH":12768,"BSTAR":0.00021531,"MEAN_MOTION_DOT":5.96e-6,"MEAN_MOTION_DDOT":0},{"OBJECT_NAME":"PRISMA (MANGO)","OBJECT_ID":"2010-028B","EPOCH":"2026-03-09T21:35:54.346848","MEAN_MOTION":14.59052275,"ECCENTRICITY":0.00532718,"INCLINATION":98.0265,"RA_OF_ASC_NODE":271.8365,"ARG_OF_PERICENTER":155.8283,"MEAN_ANOMALY":204.5434,"EPHEMERIS_TYPE":0,"CLASSIFICATION_TYPE":"U","NORAD_CAT_ID":36599,"ELEMENT_SET_NO":999,"REV_AT_EPOCH":83469,"BSTAR":0.00014155667,"MEAN_MOTION_DOT":6.32e-6,"MEAN_MOTION_DDOT":0}]
